O3B FM5                 
1 39188U 13031A   22226.44543984 -.00000027  00000+0  00000+0 0  9990
2 39188   0.0556  22.0608 0002570 123.3360 214.6163  5.00115265166851
O3B FM4                 
1 39189U 13031B   22226.50150246 -.00000027  00000+0  00000+0 0  9993
2 39189   0.0559 352.8466 0002535 152.1556 215.0109  5.00115789166877
O3B FM2                 
1 39190U 13031C   22221.80436394 -.00000022  00000+0  00000+0 0  9999
2 39190   0.0588 349.0030 0001051 136.7352 234.2693  4.99476710166704
O3B PFM                 
1 39191U 13031D   22225.81964428 -.00000027  00000+0  00000+0 0  9994
2 39191   0.0526  13.0737 0002645 129.6464 217.2946  5.00115665166461
O3B FM3                 
1 40079U 14038A   22225.87439664 -.00000027  00000+0  00000+0 0  9994
2 40079   0.0550   1.0078 0005031 136.1333 222.8945  5.00115297142848
O3B FM7                 
1 40080U 14038B   22225.42068661 -.00000027  00000+0  00000+0 0  9992
2 40080   0.0587 358.5688 0001161 182.7542 178.6730  5.00115418147644
O3B FM6                 
1 40081U 14038C   22226.44651386 -.00000027  00000+0  00000+0 0  9998
2 40081   0.0543   0.0082 0002692 143.8933 216.1132  5.00115395147644
O3B FM8                 
1 40082U 14038D   22226.50045951 -.00000027  00000+0  00000+0 0  9991
2 40082   0.0538 356.6582 0002678 144.1779 219.1797  5.00115627147761
O3B FM10                
1 40348U 14083A   22225.72691808 -.00000027  00000+0  00000+0 0  9997
2 40348   0.0493   8.5278 0002626 133.8412 217.6457  5.00115115139683
O3B FM11                
1 40349U 14083B   22225.14071865 -.00000027  00000+0  00000+0 0  9999
2 40349   0.0538   9.8496 0002293 146.4642 203.6930  5.00115336139670
O3B FM12                
1 40350U 14083C   22225.76758891 -.00000027  00000+0  00000+0 0  9990
2 40350   0.0535   8.8577 0002708 137.9204 213.2352  5.00115250139713
O3B FM9                 
1 40351U 14083D   22226.19430821 -.00000027  00000+0  00000+0 0  9999
2 40351   0.0550  10.3897 0002584 133.7044 215.9197  5.00115573139884
DIAMOND RED             
1 42783U 17036U   22226.34689577  .00006439  00000+0  23599-3 0  9996
2 42783  97.1951 265.1697 0012080 120.3338 239.9098 15.28262556285787
DIAMOND GREEN           
1 42785U 17036W   22226.54333289  .00007188  00000+0  26342-3 0  9997
2 42785  97.1955 265.4231 0011902 120.9473 239.2938 15.28224520285884
DIAMOND BLUE            
1 42786U 17036X   22226.08401541  .00006633  00000+0  24333-3 0  9996
2 42786  97.1954 264.9714 0011917 122.7535 237.4855 15.28221747285818
LEO VANTAGE 1           
1 43113U 18004C   22226.43386098  .00001237  00000+0  10536-3 0  9990
2 43113  99.2458 312.6433 0401283  17.2762 344.1643 14.54028423232663
O3B FM15                
1 43231U 18024A   22226.46014294 -.00000027  00000+0  00000+0 0  9990
2 43231   0.0459   7.9348 0002891 137.9246 214.1556  5.00115982 80841
O3B FM16                
1 43232U 18024B   22225.91385207 -.00000027  00000+0  00000+0 0  9995
2 43232   0.0417   8.5775 0002864 137.2275 214.2097  5.00115834 80748
O3B FM14                
1 43233U 18024C   22226.15333871 -.00000027  00000+0  00000+0 0  9993
2 43233   0.0403   7.7960 0002680 139.5531 212.6638  5.00115257 80761
O3B FM13                
1 43234U 18024D   22226.40672490 -.00000027  00000+0  00000+0 0  9995
2 43234   0.0483  34.6019 0003556 120.4862 204.9255  5.00114992 80880
O3B FM20                
1 44112U 19020A   22226.37995125 -.00000027  00000+0  00000+0 0  9997
2 44112   0.0493   7.6047 0002931 145.5405 206.8664  5.00115412 61382
O3B FM19                
1 44113U 19020B   22226.40672368 -.00000027  00000+0  00000+0 0  9993
2 44113   0.0581  21.5414 0001756 128.9361 209.5288  5.00114947 61254
O3B FM17                
1 44114U 19020C   22226.48726787 -.00000027  00000+0  00000+0 0  9997
2 44114   0.0417 344.1470 0002999 162.9126 212.9555  5.00115549 61351
O3B FM18                
1 44115U 19020D   22226.43380017 -.00000027  00000+0  00000+0 0  9995
2 44115   0.0495   8.0746 0002873 135.2867 216.6549  5.00115713 61465
SALSAT                  
1 46495U 20068K   22226.42058268  .00001266  00000+0  94098-4 0  9991
2 46495  97.7313 167.7535 0018343  82.0066 278.3240 15.04709548102906
